{"type": "FeatureCollection", "features": [ {"type": "Feature", "properties": {"norad_id": 45358, "name": "COSMOS 2545 (760)", "group": "glo-ops", "lat": -63.02554653222834, "lon": -110.97228958173096, "alt_km": 19110.24390090688, "timestamp": "2025-12-14T16:47:40.944910+00:00", "meta": {"OBJECT_NAME": "COSMOS 2545 (760)", "OBJECT_ID": "2020-018A", "EPOCH": "2025-12-10T13:58:04.872576", "MEAN_MOTION": 2.13102273, "ECCENTRICITY": 0.00118432, "INCLINATION": 64.471, "RA_OF_ASC_NODE": 319.0455, "ARG_OF_PERICENTER": 248.8319, "MEAN_ANOMALY": 111.0396, "EPHEMERIS_TYPE": 0, "CLASSIFICATION_TYPE": "U", "NORAD_CAT_ID": 45358, "ELEMENT_SET_NO": 999, "REV_AT_EPOCH": 4464, "BSTAR": 0, "MEAN_MOTION_DOT": -5.2e-07, "MEAN_MOTION_DDOT": 0}, "tle": {"line1": "1 45358U 20018A   25344.58200084 -.00000052  00000+0  00000+0 0  9997", "line2": "2 45358  64.4710 319.0455 0011843 248.8319 111.0396  2.13102273 44648"}}, "geometry": {"type": "Point", "coordinates": [-110.97228958173096, -63.02554653222834]}}, {"type": "Feature", "properties": {"norad_id": 46805, "name": "COSMOS 2547 (705K)", "group": "glo-ops", "lat": 39.99482121111011, "lon": -4.86175795734713, "alt_km": 19126.585302113097, "timestamp": "2025-12-14T16:47:40.944922+00:00", "meta": {"OBJECT_NAME": "COSMOS 2547 (705K)", "OBJECT_ID": "2020-075A", "EPOCH": "2025-12-13T02:47:35.788416", "MEAN_MOTION": 2.13100044, "ECCENTRICITY": 0.00062786, "INCLINATION": 64.5959, "RA_OF_ASC_NODE": 198.6839, "ARG_OF_PERICENTER": 228.7725, "MEAN_ANOMALY": 131.2461, "EPHEMERIS_TYPE": 0, "CLASSIFICATION_TYPE": "U", "NORAD_CAT_ID": 46805, "ELEMENT_SET_NO": 999, "REV_AT_EPOCH": 3994, "BSTAR": 0, "MEAN_MOTION_DOT": 7.7e-07, "MEAN_MOTION_DDOT": 0}, "tle": {"line1": "1 46805U 20075A   25347.11638644  .00000077  00000+0  00000+0 0  9993", "line2": "2 46805  64.5959 198.6839 0006278 228.7725 131.2461  2.13100044 39941"}}, "geometry": {"type": "Point", "coordinates": [-4.86175795734713, 39.99482121111011]}}, {"type": "Feature", "properties": {"norad_id": 52984, "name": "COSMOS 2557 (706K)", "group": "glo-ops", "lat": 7.151228298857861, "lon": -35.58157908353431, "alt_km": 19130.115337550433, "timestamp": "2025-12-14T16:47:40.944934+00:00", "meta": {"OBJECT_NAME": "COSMOS 2557 (706K)", "OBJECT_ID": "2022-075A", "EPOCH": "2025-12-07T04:21:00.419904", "MEAN_MOTION": 2.13101754, "ECCENTRICITY": 0.00137049, "INCLINATION": 64.4129, "RA_OF_ASC_NODE": 321.247, "ARG_OF_PERICENTER": 276.9, "MEAN_ANOMALY": 82.939, "EPHEMERIS_TYPE": 0, "CLASSIFICATION_TYPE": "U", "NORAD_CAT_ID": 52984, "ELEMENT_SET_NO": 999, "REV_AT_EPOCH": 2662, "BSTAR": 0, "MEAN_MOTION_DOT": -5.2e-07, "MEAN_MOTION_DDOT": 0}, "tle": {"line1": "1 52984U 22075A   25341.18125486 -.00000052  00000+0  00000+0 0  9990", "line2": "2 52984  64.4129 321.2470 0013704 276.9000  82.9390  2.13101754 26625"}}, "geometry": {"type": "Point", "coordinates": [-35.58157908353431, 7.151228298857861]}}, {"type": "Feature", "properties": {"norad_id": 54031, "name": "COSMOS 2559 (707K)", "group": "glo-ops", "lat": 29.771789005584232, "lon": 125.13236724212128, "alt_km": 19105.623365023723, "timestamp": "2025-12-14T16:47:40.944946+00:00", "meta": {"OBJECT_NAME": "COSMOS 2559 (707K)", "OBJECT_ID": "2022-130A", "EPOCH": "2025-12-13T13:40:56.182944", "MEAN_MOTION": 2.13101371, "ECCENTRICITY": 0.00117769, "INCLINATION": 64.3818, "RA_OF_ASC_NODE": 321.1118, "ARG_OF_PERICENTER": 192.371, "MEAN_ANOMALY": 167.5998, "EPHEMERIS_TYPE": 0, "CLASSIFICATION_TYPE": "U", "NORAD_CAT_ID": 54031, "ELEMENT_SET_NO": 999, "REV_AT_EPOCH": 2473, "BSTAR": 0, "MEAN_MOTION_DOT": -6.4e-07, "MEAN_MOTION_DDOT": 0}, "tle": {"line1": "1 54031U 22130A   25347.57009471 -.00000064  00000+0  00000+0 0  9994", "line2": "2 54031  64.3818 321.1118 0011776 192.3710 167.5998  2.13101371 24737"}}, "geometry": {"type": "Point", "coordinates": [125.13236724212128, 29.771789005584232]}}, {"type": "Feature", "properties": {"norad_id": 54377, "name": "COSMOS 2564 (761)", "group": "glo-ops", "lat": -64.46653413938617, "lon": 100.11287738659351, "alt_km": 19125.988827795707, "timestamp": "2025-12-14T16:47:40.944962+00:00", "meta": {"OBJECT_NAME": "COSMOS 2564 (761)", "OBJECT_ID": "2022-161A", "EPOCH": "2025-12-13T09:56:35.350656", "MEAN_MOTION": 2.13102091, "ECCENTRICITY": 0.00086002, "INCLINATION": 64.7383, "RA_OF_ASC_NODE": 198.8765, "ARG_OF_PERICENTER": 204.6894, "MEAN_ANOMALY": 155.3431, "EPHEMERIS_TYPE": 0, "CLASSIFICATION_TYPE": "U", "NORAD_CAT_ID": 54377, "ELEMENT_SET_NO": 999, "REV_AT_EPOCH": 2367, "BSTAR": 0, "MEAN_MOTION_DOT": 8.1e-07, "MEAN_MOTION_DDOT": 0}, "tle": {"line1": "1 54377U 22161A   25347.41429804  .00000081  00000+0  00000+0 0  9998", "line2": "2 54377  64.7383 198.8765 0008600 204.6894 155.3431  2.13102091 23679"}}, "geometry": {"type": "Point", "coordinates": [100.11287738659351, -64.46653413938617]}}, {"type": "Feature", "properties": {"norad_id": 57517, "name": "COSMOS 2569 (703K)", "group": "glo-ops", "lat": -61.656262282076305, "lon": -42.277367226576885, "alt_km": 19113.234704819206, "timestamp": "2025-12-14T16:47:40.944973+00:00", "meta": {"OBJECT_NAME": "COSMOS 2569 (703K)", "OBJECT_ID": "2023-114A", "EPOCH": "2025-12-12T23:00:06.356160", "MEAN_MOTION": 2.13103989, "ECCENTRICITY": 0.00105383, "INCLINATION": 65.1943, "RA_OF_ASC_NODE": 78.9061, "ARG_OF_PERICENTER": 287.004, "MEAN_ANOMALY": 72.8956, "EPHEMERIS_TYPE": 0, "CLASSIFICATION_TYPE": "U", "NORAD_CAT_ID": 57517, "ELEMENT_SET_NO": 999, "REV_AT_EPOCH": 1829, "BSTAR": 0, "MEAN_MOTION_DOT": -4.5e-07, "MEAN_MOTION_DDOT": 0}, "tle": {"line1": "1 57517U 23114A   25346.95840690 -.00000045  00000+0  00000+0 0  9995", "line2": "2 57517  65.1943  78.9061 0010538 287.0040  72.8956  2.13103989 18297"}}, "geometry": {"type": "Point", "coordinates": [-42.277367226576885, -61.656262282076305]}}, {"type": "Feature", "properties": {"norad_id": 63130, "name": "COSMOS 2584 (704K)", "group": "glo-ops", "lat": -15.413223743043101, "lon": 71.69625866738043, "alt_km": 19143.67857254395, "timestamp": "2025-12-14T16:47:40.944984+00:00", "meta": {"OBJECT_NAME": "COSMOS 2584 (704K)", "OBJECT_ID": "2025-042A", "EPOCH": "2025-12-12T20:16:48.196992", "MEAN_MOTION": 2.13103011, "ECCENTRICITY": 0.00076618, "INCLINATION": 64.9761, "RA_OF_ASC_NODE": 79.1423, "ARG_OF_PERICENTER": 217.4089, "MEAN_ANOMALY": 142.5525, "EPHEMERIS_TYPE": 0, "CLASSIFICATION_TYPE": "U", "NORAD_CAT_ID": 63130, "ELEMENT_SET_NO": 999, "REV_AT_EPOCH": 607, "BSTAR": 0, "MEAN_MOTION_DOT": -4.4e-07, "MEAN_MOTION_DDOT": 0}, "tle": {"line1": "1 63130U 25042A   25346.84500228 -.00000044  00000+0  00000+0 0  9992", "line2": "2 63130  64.9761  79.1423 0007661 217.4089 142.5525  2.13103011  6074"}}, "geometry": {"type": "Point", "coordinates": [71.69625866738043, -15.413223743043101]}}, {"type": "Feature", "properties": {"norad_id": 65590, "name": "COSMOS 2596 (708K)", "group": "glo-ops", "lat": 62.41057962739975, "lon": 76.80289796989919, "alt_km": 19155.753521221774, "timestamp": "2025-12-14T16:47:40.944995+00:00", "meta": {"OBJECT_NAME": "COSMOS 2596 (708K)", "OBJECT_ID": "2025-206B", "EPOCH": "2025-12-13T20:50:15.808128", "MEAN_MOTION": 2.13100516, "ECCENTRICITY": 0.00140406, "INCLINATION": 64.7435, "RA_OF_ASC_NODE": 321.4347, "ARG_OF_PERICENTER": 306.4952, "MEAN_ANOMALY": 236.937, "EPHEMERIS_TYPE": 0, "CLASSIFICATION_TYPE": "U", "NORAD_CAT_ID": 65590, "ELEMENT_SET_NO": 999, "REV_AT_EPOCH": 196, "BSTAR": 0, "MEAN_MOTION_DOT": -6.4e-07, "MEAN_MOTION_DDOT": 0}, "tle": {"line1": "1 65590U 25206B   25347.86823852 -.00000064  00000+0  00000+0 0  9992", "line2": "2 65590  64.7435 321.4347 0014040 306.4952 236.9370  2.13100516  1963"}}, "geometry": {"type": "Point", "coordinates": [76.80289796989919, 62.41057962739975]}}]}